#aV2021  6 16  0  0  0.00000000     288 DD+AD WGS84 FIT  NGA
## 2162 259200.00000000   300.00000000 59381 0.0000000000000
+   31     1  2  3  4  5  6  7  8  9 10 12 13 14 15 16 17 18
+         19 20 21 22 23 24 25 26 27 28 29 30 31 32  0  0  0
+          0  0  0  0  0  0  0  0  0  0  0  0  0  0  0  0  0
+          0  0  0  0  0  0  0  0  0  0  0  0  0  0  0  0  0
+          0  0  0  0  0  0  0  0  0  0  0  0  0  0  0  0  0
++         2  2  2  2  2  2  2  2  2  2  2  2  2  2  2  2  2
++         2  2  2  2  2  2  2  2  2  2  2  2  2  2  0  0  0
++         0  0  0  0  0  0  0  0  0  0  0  0  0  0  0  0  0
++         0  0  0  0  0  0  0  0  0  0  0  0  0  0  0  0  0
++         0  0  0  0  0  0  0  0  0  0  0  0  0  0  0  0  0
%c cc cc ccc ccc cccc cccc cccc cccc ccccc ccccc ccccc ccccc
%c cc cc ccc ccc cccc cccc cccc cccc ccccc ccccc ccccc ccccc
%f  0.0000000  0.000000000  0.00000000000  0.000000000000000
%f  0.0000000  0.000000000  0.00000000000  0.000000000000000
%i    0    0    0    0      0      0      0      0         0
%i    0    0    0    0      0      0      0      0         0
/*      NGA, ST. LOUIS,MO.                                  
/*   EPHEMERIS COMPUTED FROM 2 DAYS OF DATA                 
/*   EPOCHA v6 SMOOTHER                                     
/*   G2139 IERS2010 SATIGS SATAPC                           
*  2021  6 16  2 45  0.00000000
P  1 -13220.280415  15190.633329  16867.041411    657.148759                    
V  1   1187.205134 -22042.701591  20795.270490     -0.117050                    
P  2  13423.116450  10112.815453 -19902.924835   -612.678372                    
V  2  -2296.158509  26673.719485  11685.071189     -0.029045                    
P  3 -23007.443598  12652.209746  -3651.099011   -193.202056                    
V  3  -5192.352835   -578.637301  31581.806101     -0.106887                    
P  4 -15172.965818   6524.178902 -20804.838569   -199.978957                    
V  4 -20156.676526 -17106.727701   9273.408603     -0.011372                    
P  5  24492.073622  -3927.922171  -9907.686572    -45.073783                    
V  5 -10054.871237   7496.220090 -28096.525483     -0.011364                    
P  6   7398.201536  20755.624867 -14732.478835     27.495707                    
V  6  -3804.835599  18462.494412  24063.259283      0.046729                    
P  7  -6634.279571  24893.077763  -4910.055303    179.297397                    
V  7  -2638.094934  -7163.137105 -31030.754431      0.097032                    
P  8 -21523.192903  -2187.498212  15597.542392    -25.228402                    
V  8 -15046.613807 -12811.362682 -22242.967399     -0.014923                    
P  9  -4385.946058  15420.494371 -21232.749486   -351.302707                    
V  9 -22186.894677 -15139.729099  -6452.581469     -0.018837                    
P 10  -2454.445239 -15188.344911  21739.967796   -143.192828                    
V 10  25253.762365 -10461.260603  -4743.812677     -0.076145                    
P 12  24243.514826 -10389.780121  -2658.584520    -55.576159                    
V 12   3726.269850   1339.628391  31892.826129     -0.052314                    
P 13  21758.068406  11290.408177  10266.585824    145.440432                    
V 13   7896.777006  10778.715882 -28088.276772      0.048702                    
P 14   1673.715330  15539.459228  21463.809351     68.224697                    
V 14 -25666.043275   9281.679074  -4752.768378     -0.074648                    
P 15  21809.833059   -396.847871  15019.058254   -142.088875                    
V 15  15761.821013  12051.622634 -21684.579320      0.026263                    
P 16 -22812.558131  -2520.459384 -14000.083776   -341.968600                    
V 16  15837.570278  -6767.523526 -24586.322441     -0.060490                    
P 17   9354.574012  20512.395830  14464.074808    459.125824                    
V 17 -14434.092264 -10178.815035  24500.660904      0.059786                    
P 18   5107.596952 -25935.297148  -2173.243771    346.520939                    
V 18   2226.013412   3083.430756 -31810.414890     -0.018423                    
P 19  16308.243792  20195.753658   5648.835826     13.944039                    
V 19  -6913.847485  -3569.925755  31025.768406      0.049846                    
P 20  23309.727044  -4414.022851 -11615.337799    521.128893                    
V 20 -10995.625647  10541.634136 -26406.401199     -0.003781                    
P 21 -15257.016451   6823.742400  21245.220862    125.307847                    
V 21    129.409781 -25515.160844   9072.932833      0.024784                    
P 22 -24383.319431   8269.340169   6268.826105   -587.397246                    
V 22   5066.067147  -6933.554249  29934.412206      0.096385                    
P 23   9932.407832 -17671.343239  17112.599285     96.330451                    
V 23  20482.663279  -7603.029229 -19765.407888     -0.042535                    
P 24  14662.885603 -10358.304152  19202.421940    134.181152                    
V 24    650.618956  25185.583122  13317.023941      0.178909                    
P 25  16253.342477 -16737.792315 -12700.391745    156.654997                    
V 25  15460.330695  -4092.628439  25976.200975      0.068833                    
P 26 -15495.783357  -8581.051803 -19924.001777     98.923489                    
V 26  22130.400563 -12034.664563 -11794.334992      0.048003                    
P 27 -23119.064355 -11668.413577   6534.784527   -147.836782                    
V 27  -5593.081863  -6619.902714 -30404.301442     -0.062033                    
P 28   7864.857927  13299.893293  22136.896796    553.919455                    
V 28 -25366.654622   8605.693411   4124.113685     -0.063020                    
P 29   6019.977424 -13977.354849 -21811.624055   -364.822544                    
V 29  21069.594516  17700.557809  -5591.263598     -0.062466                    
P 30   1837.596726  25355.850566   7321.803061   -439.494782                    
V 30  -4820.324545   8715.369915 -29465.613408     -0.046688                    
P 31  -9284.151881 -18316.033464 -16665.838663   -123.310616                    
V 31   5130.697975 -20689.092413  20439.701061     -0.021545                    
P 32 -12877.431876 -20004.468828  12099.593400     18.316329                    
V 32  13558.989545   7094.416779  26241.200713     -0.013906                    
EOF
